{
    "links": {
        "self": "http://www.neowsapp.com/rest/v1/neo/3591757?api_key=iIulBulltgU6a56xZRHN4H3l9WmuAYTsLGpBGhQ2"
    },
    "id": "3591757",
    "neo_reference_id": "3591757",
    "name": "(2011 YC40)",
    "designation": "2011 YC40",
    "nasa_jpl_url": "http://ssd.jpl.nasa.gov/sbdb.cgi?sstr=3591757",
    "absolute_magnitude_h": 29.7,
    "estimated_diameter": {
        "kilometers": {
            "estimated_diameter_min": 0.0030517923,
            "estimated_diameter_max": 0.0068240151
        },
        "meters": {
            "estimated_diameter_min": 3.0517923259,
            "estimated_diameter_max": 6.824015094
        },
        "miles": {
            "estimated_diameter_min": 0.0018962952,
            "estimated_diameter_max": 0.0042402451
        },
        "feet": {
            "estimated_diameter_min": 10.0124423346,
            "estimated_diameter_max": 22.388501681
        }
    },
    "is_potentially_hazardous_asteroid": false,
    "close_approach_data": [
        {
            "close_approach_date": "2011-12-27",
            "close_approach_date_full": "2011-Dec-27 17:48",
            "epoch_date_close_approach": 1325008080000,
            "relative_velocity": {
                "kilometers_per_second": "10.8406929844",
                "kilometers_per_hour": "39026.4947436676",
                "miles_per_hour": "24249.5461366972"
            },
            "miss_distance": {
                "astronomical": "0.0020297224",
                "lunar": "0.7895620136",
                "kilometers": "303642.147731288",
                "miles": "188674.4816482544"
            },
            "orbiting_body": "Moon"
        },
        {
            "close_approach_date": "2011-12-28",
            "close_approach_date_full": "2011-Dec-28 02:30",
            "epoch_date_close_approach": 1325039400000,
            "relative_velocity": {
                "kilometers_per_second": "11.3600379755",
                "kilometers_per_hour": "40896.1367118983",
                "miles_per_hour": "25411.268947457"
            },
            "miss_distance": {
                "astronomical": "0.0007141883",
                "lunar": "0.2778192487",
                "kilometers": "106841.048458921",
                "miles": "66387.9490622698"
            },
            "orbiting_body": "Earth"
        }
    ],
    "orbital_data": {
        "orbit_id": "4",
        "orbit_determination_date": "2017-04-06 08:51:38",
        "first_observation_date": "2011-12-29",
        "last_observation_date": "2011-12-30",
        "data_arc_in_days": 1,
        "observations_used": 13,
        "orbit_uncertainty": "8",
        "minimum_orbit_intersection": ".000521632",
        "jupiter_tisserand_invariant": "4.570",
        "epoch_osculation": "2455925.5",
        "eccentricity": ".4199342372624286",
        "semi_major_axis": "1.436394399472084",
        "inclination": "6.431759983130223",
        "ascending_node_longitude": "96.13397971304789",
        "orbital_period": "628.794857986644",
        "perihelion_distance": ".8332032129217504",
        "perihelion_argument": "298.603479007187",
        "aphelion_distance": "2.039585586022418",
        "perihelion_time": "2455879.150184861123",
        "mean_anomaly": "26.53637070669261",
        "mean_motion": ".5725237657837949",
        "equinox": "J2000",
        "orbit_class": {
            "orbit_class_type": "APO",
            "orbit_class_description": "Near-Earth asteroid orbits which cross the Earth’s orbit similar to that of 1862 Apollo",
            "orbit_class_range": "a (semi-major axis) > 1.0 AU; q (perihelion) < 1.017 AU"
        }
    },
    "is_sentry_object": false
}